TIANLIAN 2-01           
1 44076U 19017A   26116.95997272 -.00000117  00000+0  00000+0 0  9993
2 44076   0.4091  82.7148 0001453 271.0772 283.7616  1.00271883 26131
ARABSAT-6A              
1 44186U 19021A   26116.08169591  .00000140  00000+0  00000+0 0  9994
2 44186   0.0610  27.9348 0002195  19.4989 226.5113  1.00271438 25634
BEIDOU-3 IGSO-1         
1 44204U 19023A   26110.03709628 -.00000228  00000+0  00000+0 0  9995
2 44204  58.6186  38.2497 0024357 235.9811  64.3555  1.00256582  6624
BEIDOU-2 G8             
1 44231U 19027A   26116.87915406 -.00000258  00000+0  00000+0 0  9993
2 44231   1.5300  74.3743 0011013 279.3166 322.1799  1.00268164 25562
YAMAL 601               
1 44307U 19031A   26116.95289843  .00000000  00000+0  00000+0 0  9994
2 44307   0.0106 236.1757 0002748 164.3466 206.4691  1.00270780 25403
AT&T T-16               
1 44333U 19034A   26116.90186082 -.00000126  00000+0  00000+0 0  9992
2 44333   0.0417  75.1464 0000520 183.6894 179.8763  1.00268150 25117
EUTELSAT 7C             
1 44334U 19034B   26116.92318089  .00000037  00000+0  00000+0 0  9999
2 44334   0.0746 181.9652 0003304 196.7643 175.5318  1.00270837  6324
BEIDOU-3 IGSO-2         
1 44337U 19035A   26116.51763993 -.00000097  00000+0  00000+0 0  9993
2 44337  55.2353 159.3158 0039369 215.1492 145.9118  1.00282508 25150
COSMOS 2539             
1 44457U 19048A   26116.92693659  .00000070  00000+0  00000+0 0  9996
2 44457   0.0432  80.0326 0000410  73.3574  47.2211  1.00270321 24715
EDRS-C                  
1 44475U 19049A   26116.95004769 -.00000273  00000+0  00000+0 0  9994
2 44475   0.0276 135.1501 0001262 245.0503 319.2655  1.00272747 24699
INTELSAT 39 (IS-39)     
1 44476U 19049B   26116.95946480  .00000023  00000+0  00000+0 0  9992
2 44476   0.0216 255.0289 0000609 351.5277  15.7483  1.00271026 24612
AMOS-17                 
1 44479U 19050A   26116.92517424  .00000098  00000+0  00000+0 0  9998
2 44479   0.0151 327.0743 0001403  69.5813 168.3285  1.00269416 24674
COSMOS 1897 DEB         
1 44572U 87096G   26116.61609964 -.00000172  00000+0  00000+0 0  9998
2 44572  10.9414 326.6656 0019730 297.8378  68.3051  1.00485580 70473
EUTELSAT 5 WEST B       
1 44624U 19067A   26116.92084089 -.00000053  00000+0  00000+0 0  9996
2 44624   0.0694  11.1836 0003180  24.8675 145.3604  1.00271516 23927
TJS-4                   
1 44637U 19070A   26116.93834763 -.00000180  00000+0  00000+0 0  9998
2 44637   0.0780  76.9252 0002947 353.9714 205.3567  1.00269812 24021
BEIDOU-3 IGSO-3         
1 44709U 19073A   26115.86310865 -.00000195  00000+0  00000+0 0  9990
2 44709  54.8923 281.4605 0042116 188.7957 171.0495  1.00252806 23930
TIBA-1                  
1 44800U 19080A   26116.94159743  .00000145  00000+0  00000+0 0  9990
2 44800   0.0579 346.4826 0001800  56.0153 186.9123  1.00273173 23549
