[{"OBJECT_NAME":"TIANLIAN 2-01","OBJECT_ID":"2019-017A","EPOCH":"2026-04-26T23:02:21.643008","MEAN_MOTION":1.00271883,"ECCENTRICITY":0.0001453,"INCLINATION":0.4091,"RA_OF_ASC_NODE":82.7148,"ARG_OF_PERICENTER":271.0772,"MEAN_ANOMALY":283.7616,"EPHEMERIS_TYPE":0,"CLASSIFICATION_TYPE":"U","NORAD_CAT_ID":44076,"ELEMENT_SET_NO":999,"REV_AT_EPOCH":2613,"BSTAR":0,"MEAN_MOTION_DOT":-1.17e-6,"MEAN_MOTION_DDOT":0},{"OBJECT_NAME":"ARABSAT-6A","OBJECT_ID":"2019-021A","EPOCH":"2026-04-26T01:57:38.526624","MEAN_MOTION":1.00271438,"ECCENTRICITY":0.00021953,"INCLINATION":0.061,"RA_OF_ASC_NODE":27.9348,"ARG_OF_PERICENTER":19.4989,"MEAN_ANOMALY":226.5113,"EPHEMERIS_TYPE":0,"CLASSIFICATION_TYPE":"U","NORAD_CAT_ID":44186,"ELEMENT_SET_NO":999,"REV_AT_EPOCH":2563,"BSTAR":0,"MEAN_MOTION_DOT":1.4e-6,"MEAN_MOTION_DDOT":0},{"OBJECT_NAME":"BEIDOU-3 IGSO-1","OBJECT_ID":"2019-023A","EPOCH":"2026-04-20T00:53:25.118592","MEAN_MOTION":1.00256582,"ECCENTRICITY":0.00243579,"INCLINATION":58.6186,"RA_OF_ASC_NODE":38.2497,"ARG_OF_PERICENTER":235.9811,"MEAN_ANOMALY":64.3555,"EPHEMERIS_TYPE":0,"CLASSIFICATION_TYPE":"U","NORAD_CAT_ID":44204,"ELEMENT_SET_NO":999,"REV_AT_EPOCH":662,"BSTAR":0,"MEAN_MOTION_DOT":-2.28e-6,"MEAN_MOTION_DDOT":0},{"OBJECT_NAME":"BEIDOU-2 G8","OBJECT_ID":"2019-027A","EPOCH":"2026-04-26T21:05:58.910784","MEAN_MOTION":1.00268164,"ECCENTRICITY":0.00110133,"INCLINATION":1.53,"RA_OF_ASC_NODE":74.3743,"ARG_OF_PERICENTER":279.3166,"MEAN_ANOMALY":322.1799,"EPHEMERIS_TYPE":0,"CLASSIFICATION_TYPE":"U","NORAD_CAT_ID":44231,"ELEMENT_SET_NO":999,"REV_AT_EPOCH":2556,"BSTAR":0,"MEAN_MOTION_DOT":-2.58e-6,"MEAN_MOTION_DDOT":0},{"OBJECT_NAME":"YAMAL 601","OBJECT_ID":"2019-031A","EPOCH":"2026-04-26T22:52:10.424352","MEAN_MOTION":1.0027078,"ECCENTRICITY":0.00027488,"INCLINATION":0.0106,"RA_OF_ASC_NODE":236.1757,"ARG_OF_PERICENTER":164.3466,"MEAN_ANOMALY":206.4691,"EPHEMERIS_TYPE":0,"CLASSIFICATION_TYPE":"U","NORAD_CAT_ID":44307,"ELEMENT_SET_NO":999,"REV_AT_EPOCH":2540,"BSTAR":0,"MEAN_MOTION_DOT":0,"MEAN_MOTION_DDOT":0},{"OBJECT_NAME":"AT&T T-16","OBJECT_ID":"2019-034A","EPOCH":"2026-04-26T21:38:40.774848","MEAN_MOTION":1.0026815,"ECCENTRICITY":5.209e-5,"INCLINATION":0.0417,"RA_OF_ASC_NODE":75.1464,"ARG_OF_PERICENTER":183.6894,"MEAN_ANOMALY":179.8763,"EPHEMERIS_TYPE":0,"CLASSIFICATION_TYPE":"U","NORAD_CAT_ID":44333,"ELEMENT_SET_NO":999,"REV_AT_EPOCH":2511,"BSTAR":0,"MEAN_MOTION_DOT":-1.26e-6,"MEAN_MOTION_DDOT":0},{"OBJECT_NAME":"EUTELSAT 7C","OBJECT_ID":"2019-034B","EPOCH":"2026-04-26T22:09:22.828896","MEAN_MOTION":1.00270837,"ECCENTRICITY":0.00033049,"INCLINATION":0.0746,"RA_OF_ASC_NODE":181.9652,"ARG_OF_PERICENTER":196.7643,"MEAN_ANOMALY":175.5318,"EPHEMERIS_TYPE":0,"CLASSIFICATION_TYPE":"U","NORAD_CAT_ID":44334,"ELEMENT_SET_NO":999,"REV_AT_EPOCH":632,"BSTAR":0,"MEAN_MOTION_DOT":3.7e-7,"MEAN_MOTION_DDOT":0},{"OBJECT_NAME":"BEIDOU-3 IGSO-2","OBJECT_ID":"2019-035A","EPOCH":"2026-04-26T12:25:24.089952","MEAN_MOTION":1.00282508,"ECCENTRICITY":0.00393691,"INCLINATION":55.2353,"RA_OF_ASC_NODE":159.3158,"ARG_OF_PERICENTER":215.1492,"MEAN_ANOMALY":145.9118,"EPHEMERIS_TYPE":0,"CLASSIFICATION_TYPE":"U","NORAD_CAT_ID":44337,"ELEMENT_SET_NO":999,"REV_AT_EPOCH":2515,"BSTAR":0,"MEAN_MOTION_DOT":-9.7e-7,"MEAN_MOTION_DDOT":0},{"OBJECT_NAME":"COSMOS 2539","OBJECT_ID":"2019-048A","EPOCH":"2026-04-26T22:14:47.321376","MEAN_MOTION":1.00270321,"ECCENTRICITY":4.101e-5,"INCLINATION":0.0432,"RA_OF_ASC_NODE":80.0326,"ARG_OF_PERICENTER":73.3574,"MEAN_ANOMALY":47.2211,"EPHEMERIS_TYPE":0,"CLASSIFICATION_TYPE":"U","NORAD_CAT_ID":44457,"ELEMENT_SET_NO":999,"REV_AT_EPOCH":2471,"BSTAR":0,"MEAN_MOTION_DOT":7.0e-7,"MEAN_MOTION_DDOT":0},{"OBJECT_NAME":"EDRS-C","OBJECT_ID":"2019-049A","EPOCH":"2026-04-26T22:48:04.120416","MEAN_MOTION":1.00272747,"ECCENTRICITY":0.00012627,"INCLINATION":0.0276,"RA_OF_ASC_NODE":135.1501,"ARG_OF_PERICENTER":245.0503,"MEAN_ANOMALY":319.2655,"EPHEMERIS_TYPE":0,"CLASSIFICATION_TYPE":"U","NORAD_CAT_ID":44475,"ELEMENT_SET_NO":999,"REV_AT_EPOCH":2469,"BSTAR":0,"MEAN_MOTION_DOT":-2.73e-6,"MEAN_MOTION_DDOT":0},{"OBJECT_NAME":"INTELSAT 39 (IS-39)","OBJECT_ID":"2019-049B","EPOCH":"2026-04-26T23:01:37.758720","MEAN_MOTION":1.00271026,"ECCENTRICITY":6.096e-5,"INCLINATION":0.0216,"RA_OF_ASC_NODE":255.0289,"ARG_OF_PERICENTER":351.5277,"MEAN_ANOMALY":15.7483,"EPHEMERIS_TYPE":0,"CLASSIFICATION_TYPE":"U","NORAD_CAT_ID":44476,"ELEMENT_SET_NO":999,"REV_AT_EPOCH":2461,"BSTAR":0,"MEAN_MOTION_DOT":2.3e-7,"MEAN_MOTION_DDOT":0},{"OBJECT_NAME":"AMOS-17","OBJECT_ID":"2019-050A","EPOCH":"2026-04-26T22:12:15.054336","MEAN_MOTION":1.00269416,"ECCENTRICITY":0.00014037,"INCLINATION":0.0151,"RA_OF_ASC_NODE":327.0743,"ARG_OF_PERICENTER":69.5813,"MEAN_ANOMALY":168.3285,"EPHEMERIS_TYPE":0,"CLASSIFICATION_TYPE":"U","NORAD_CAT_ID":44479,"ELEMENT_SET_NO":999,"REV_AT_EPOCH":2467,"BSTAR":0,"MEAN_MOTION_DOT":9.8e-7,"MEAN_MOTION_DDOT":0},{"OBJECT_NAME":"COSMOS 1897 DEB","OBJECT_ID":"1987-096G","EPOCH":"2026-04-26T14:47:11.008896","MEAN_MOTION":1.0048558,"ECCENTRICITY":0.00197302,"INCLINATION":10.9414,"RA_OF_ASC_NODE":326.6656,"ARG_OF_PERICENTER":297.8378,"MEAN_ANOMALY":68.3051,"EPHEMERIS_TYPE":0,"CLASSIFICATION_TYPE":"U","NORAD_CAT_ID":44572,"ELEMENT_SET_NO":999,"REV_AT_EPOCH":7047,"BSTAR":0,"MEAN_MOTION_DOT":-1.72e-6,"MEAN_MOTION_DDOT":0},{"OBJECT_NAME":"EUTELSAT 5 WEST B","OBJECT_ID":"2019-067A","EPOCH":"2026-04-26T22:06:00.652896","MEAN_MOTION":1.00271516,"ECCENTRICITY":0.000318,"INCLINATION":0.0694,"RA_OF_ASC_NODE":11.1836,"ARG_OF_PERICENTER":24.8675,"MEAN_ANOMALY":145.3604,"EPHEMERIS_TYPE":0,"CLASSIFICATION_TYPE":"U","NORAD_CAT_ID":44624,"ELEMENT_SET_NO":999,"REV_AT_EPOCH":2392,"BSTAR":0,"MEAN_MOTION_DOT":-5.3e-7,"MEAN_MOTION_DDOT":0},{"OBJECT_NAME":"TJS-4","OBJECT_ID":"2019-070A","EPOCH":"2026-04-26T22:31:13.235232","MEAN_MOTION":1.00269812,"ECCENTRICITY":0.00029471,"INCLINATION":0.078,"RA_OF_ASC_NODE":76.9252,"ARG_OF_PERICENTER":353.9714,"MEAN_ANOMALY":205.3567,"EPHEMERIS_TYPE":0,"CLASSIFICATION_TYPE":"U","NORAD_CAT_ID":44637,"ELEMENT_SET_NO":999,"REV_AT_EPOCH":2402,"BSTAR":0,"MEAN_MOTION_DOT":-1.8e-6,"MEAN_MOTION_DDOT":0},{"OBJECT_NAME":"BEIDOU-3 IGSO-3","OBJECT_ID":"2019-073A","EPOCH":"2026-04-25T20:42:52.587360","MEAN_MOTION":1.00252806,"ECCENTRICITY":0.00421169,"INCLINATION":54.8923,"RA_OF_ASC_NODE":281.4605,"ARG_OF_PERICENTER":188.7957,"MEAN_ANOMALY":171.0495,"EPHEMERIS_TYPE":0,"CLASSIFICATION_TYPE":"U","NORAD_CAT_ID":44709,"ELEMENT_SET_NO":999,"REV_AT_EPOCH":2393,"BSTAR":0,"MEAN_MOTION_DOT":-1.95e-6,"MEAN_MOTION_DDOT":0},{"OBJECT_NAME":"TIBA-1","OBJECT_ID":"2019-080A","EPOCH":"2026-04-26T22:35:54.017952","MEAN_MOTION":1.00273173,"ECCENTRICITY":0.00018002,"INCLINATION":0.0579,"RA_OF_ASC_NODE":346.4826,"ARG_OF_PERICENTER":56.0153,"MEAN_ANOMALY":186.9123,"EPHEMERIS_TYPE":0,"CLASSIFICATION_TYPE":"U","NORAD_CAT_ID":44800,"ELEMENT_SET_NO":999,"REV_AT_EPOCH":2354,"BSTAR":0,"MEAN_MOTION_DOT":1.45e-6,"MEAN_MOTION_DDOT":0}]
